     3.04           N: GNSS NAV DATA    M: Mixed            RINEX VERSION / TYPE
CONVBIN demo5 b34g                      20221018 170515 UTC PGM / RUN BY / DATE 
log: /home/dominic/Bureau/ubx/2022.10.08_011432.ubx         COMMENT             
format: u-blox UBX                                          COMMENT             
format: u-blox UBX                                          COMMENT             
log: /home/dominic/Bureau/ubx/2022.10.08_011432.ubx         COMMENT             
                                                            END OF HEADER       
G27 2022 10 08 04 00 00  .201470684260D-03 -.579802872380D-11  .000000000000D+00
      .280000000000D+02 -.647187500000D+02  .450661629009D-08  .113017500245D+01
     -.323355197906D-05  .106363769155D-01  .966340303421D-05  .515366076851D+04
      .532800000000D+06  .931322574615D-08 -.824525673170D+00  .186264514923D-06
      .970573245460D+00  .199312500000D+03  .685033896149D+00 -.818712674098D-08
     -.672528013491D-09  .100000000000D+01  .223000000000D+04  .000000000000D+00
      .200000000000D+01  .000000000000D+00  .139698386192D-08  .280000000000D+02
      .525606000000D+06  .400000000000D+01
G16 2022 10 08 04 00 00 -.525856856257D-03 -.682121026330D-12  .000000000000D+00
      .810000000000D+02  .706250000000D+01  .503985278724D-08  .203339387131D+01
      .301748514175D-06  .128370105522D-01  .353157520294D-05  .515371352386D+04
      .532800000000D+06 -.320374965668D-06 -.178099221464D+01 -.149011611938D-06
      .967244632844D+00  .317468750000D+03  .734348263341D+00 -.843356557757D-08
      .925038531568D-10  .100000000000D+01  .223000000000D+04  .000000000000D+00
      .200000000000D+01  .000000000000D+00 -.102445483208D-07  .810000000000D+02
      .525606000000D+06  .400000000000D+01
G08 2022 10 08 04 00 00 -.878768041730D-04 -.159161572810D-11  .000000000000D+00
      .610000000000D+02 -.704687500000D+02  .466662295501D-08  .112975180805D+01
     -.348128378391D-05  .759252160788D-02  .946782529354D-05  .515360116577D+04
      .532800000000D+06  .108033418655D-06 -.845910102020D+00  .558793544769D-07
      .961756094830D+00  .194937500000D+03  .162469118851D+00 -.821534220198D-08
     -.719672834405D-09  .100000000000D+01  .223000000000D+04  .000000000000D+00
      .200000000000D+01  .000000000000D+00  .512227416039D-08  .610000000000D+02
      .525606000000D+06  .400000000000D+01
G04 2022 10 08 04 00 00 -.107033178210D-03  .591171556152D-11  .000000000000D+00
      .230000000000D+02 -.102406250000D+03  .433910931275D-08  .786148065445D+00
     -.525079667568D-05  .206900446210D-02  .100135803223D-04  .515375249290D+04
      .532800000000D+06  .670552253723D-07  .235331144439D+01  .875443220139D-07
      .961879069187D+00  .185125000000D+03 -.310861276885D+01 -.807069331963D-08
     -.454661795632D-09  .100000000000D+01  .223000000000D+04  .000000000000D+00
      .200000000000D+01  .000000000000D+00 -.465661287308D-08  .791000000000D+03
      .525606000000D+06  .400000000000D+01
G26 2022 10 08 04 00 00  .231631100178D-03  .147792889038D-11  .000000000000D+00
      .940000000000D+02  .324687500000D+02  .567273629224D-08  .289406889391D+01
      .176951289177D-05  .722791301087D-02  .318884849548D-05  .515356365204D+04
      .532800000000D+06 -.838190317154D-07 -.193047542371D+01 -.100582838058D-06
      .935881715847D+00  .306875000000D+03  .380298851168D+00 -.869393356580D-08
      .263225250103D-09  .100000000000D+01  .223000000000D+04  .000000000000D+00
      .280000000000D+01  .000000000000D+00  .698491930962D-08  .940000000000D+02
      .525606000000D+06  .400000000000D+01
G18 2022 10 08 04 00 00  .223191455007D-04 -.131876731757D-10  .000000000000D+00
      .120000000000D+03  .709687500000D+02  .403909681602D-08 -.870765481026D+00
      .360980629921D-05  .290014466736D-02  .112447887659D-04  .515372324562D+04
      .532800000000D+06  .186264514923D-08  .243286983617D+00 -.745058059692D-07
      .972858424441D+00  .171562500000D+03  .309035875940D+01 -.780318217672D-08
      .229652423088D-09  .100000000000D+01  .223000000000D+04  .000000000000D+00
      .200000000000D+01  .000000000000D+00 -.838190317154D-08  .632000000000D+03
      .525606000000D+06  .400000000000D+01
R14 2022 10 08 02 15 00  .242134556174D-04  .000000000000D+00  .525600000000D+06
      .124966250000D+05  .279854488373D+01  .931322574615D-09  .000000000000D+00
     -.842294335938D+04  .308221817017D+00 -.279396772385D-08 -.700000000000D+01
      .205909062500D+05 -.157509994507D+01 -.279396772385D-08  .000000000000D+00
R24 2022 10 08 02 15 00  .119039788842D-03  .272848410532D-11  .525600000000D+06
      .176299233398D+05 -.141471672058D+01  .186264514923D-08  .000000000000D+00
     -.105068305664D+05  .152463531494D+01 -.372529029846D-08  .200000000000D+01
      .151829550781D+05  .269865131378D+01 -.186264514923D-08  .000000000000D+00
R15 2022 10 08 02 15 00  .933362171054D-04  .000000000000D+00  .525600000000D+06
     -.643573242188D+04  .295316219330D+01  .931322574615D-09  .000000000000D+00
     -.114879467773D+05  .454551696777D+00  .000000000000D+00  .000000000000D+00
      .218705375977D+05  .110857677460D+01 -.279396772385D-08  .100000000000D+01
R05 2022 10 08 02 15 00  .100884586573D-03  .909494701773D-12  .525600000000D+06
     -.131945825195D+05 -.755114555359D+00  .279396772385D-08  .000000000000D+00
     -.181127373047D+05 -.149400043488D+01  .931322574615D-09  .100000000000D+01
      .121625952148D+05 -.304753589630D+01 -.186264514923D-08  .000000000000D+00
R23 2022 10 08 02 15 00 -.576768070459D-04 -.909494701773D-12  .525600000000D+06
      .103480205078D+05 -.202908992767D+01 -.931322574615D-09  .000000000000D+00
      .357200585938D+04  .242386531830D+01  .000000000000D+00  .300000000000D+01
      .230339521484D+05  .534858703613D+00 -.279396772385D-08  .000000000000D+00
R17 2022 10 08 02 15 00  .567221082747D-03  .272848410532D-11  .525600000000D+06
      .153118671875D+05 -.519905090332D-01  .372529029846D-08  .000000000000D+00
     -.203791884766D+05 -.303628921509D+00 -.465661287308D-08  .400000000000D+01
     -.149063134766D+04  .358864212036D+01  .000000000000D+00  .000000000000D+00
R04 2022 10 08 02 15 00  .160388648510D-03  .909494701773D-12  .525600000000D+06
     -.715639941406D+04  .654706954956D-01  .465661287308D-08  .000000000000D+00
     -.240275756836D+05  .660813331604D+00 -.931322574615D-09  .600000000000D+01
     -.463806005859D+04 -.350985908508D+01  .000000000000D+00  .000000000000D+00
R06 2022 10 08 02 15 00 -.738594681025D-04 -.181898940355D-11  .525600000000D+06
     -.112532998047D+05 -.125741863251D+01  .000000000000D+00  .000000000000D+00
      .159094433594D+04 -.286466217041D+01  .279396772385D-08 -.400000000000D+01
      .228170053711D+05 -.422538757324D+00 -.186264514923D-08  .000000000000D+00
R13 2022 10 08 02 15 00 -.275988131762D-04  .000000000000D+00  .525600000000D+06
      .247803789062D+05  .839919090271D+00  .000000000000D+00  .000000000000D+00
      .175592285156D+03 -.411672592163D-01 -.372529029846D-08 -.200000000000D+01
      .603933544922D+04 -.343906211853D+01 -.931322574615D-09  .000000000000D+00
C37 2022 10 08 02 00 00 -.437580281869D-03 -.121173293621D-09  .000000000000D+00
      .100000000000D+01  .107062500000D+03  .438196824085D-08  .313257432832D+01
      .535231083632D-05  .717149116099D-03  .786269083619D-05  .528261526299D+04
      .525600000000D+06  .162981450558D-07 -.248854780923D+01  .465661287308D-09
      .948467305413D+00  .194578125000D+03 -.789341994508D+00 -.714386899939D-08
      .706100840506D-09  .000000000000D+00  .874000000000D+03  .000000000000D+00
      .200000000000D+01  .000000000000D+00 -.165000000000D-07 -.165000000000D-07
      .525600000000D+06  .100000000000D+01
C28 2022 10 08 02 00 00  .217531342059D-04  .460786964140D-11  .000000000000D+00
      .100000000000D+01 -.912500000000D+01  .348978822083D-08 -.284350607096D+01
     -.518746674061D-06  .243789632805D-03  .140587799251D-04  .528264468193D+04
      .525600000000D+06  .367872416973D-07 -.381458920335D+00 -.405125319958D-07
      .964818485614D+00  .756093750000D+02 -.251873746007D+01 -.663099049308D-08
     -.370729728096D-09  .000000000000D+00  .874000000000D+03  .000000000000D+00
      .200000000000D+01  .000000000000D+00 -.410000000000D-08 -.410000000000D-08
      .525600000000D+06  .100000000000D+01
C27 2022 10 08 02 00 00  .325478613377D-04  .597921712142D-11  .000000000000D+00
      .100000000000D+01 -.166562500000D+02  .348621664349D-08 -.116269655934D+01
     -.955536961555D-06  .539711094461D-03  .143111683428D-04  .528262854767D+04
      .525600000000D+06 -.158324837685D-07 -.381260081973D+00 -.116415321827D-07
      .964938851588D+00  .698593750000D+02  .132871966651D+01 -.661598986825D-08
     -.414302971667D-09  .000000000000D+00  .874000000000D+03  .000000000000D+00
      .200000000000D+01  .000000000000D+00 -.430000000000D-08 -.430000000000D-08
      .525600000000D+06  .100000000000D+01
C19 2022 10 08 02 00 00 -.826274044812D-03 -.860316262674D-10  .000000000000D+00
      .100000000000D+01 -.690156250000D+02  .402766776853D-08 -.245822742324D+01
     -.341003760695D-05  .522680231370D-03  .219745561481D-05  .528261947632D+04
      .525600000000D+06  .614672899246D-07  .169691540288D+01  .637955963612D-07
      .970280505312D+00  .320828125000D+03 -.102647490162D+01 -.727494588784D-08
     -.305012705003D-09  .000000000000D+00  .874000000000D+03  .000000000000D+00
      .200000000000D+01  .000000000000D+00  .101000000000D-07  .101000000000D-07
      .525600000000D+06  .100000000000D+01
